NORAD_CAT_ID,OBJECT_NAME,OBJECT_TYPE,EPOCH,MEAN_MOTION,ECCENTRICITY,INCLINATION,RA_OF_ASC_NODE,ARG_OF_PERICENTER,MEAN_ANOMALY,BSTAR,MEAN_MOTION_DOT,MEAN_MOTION_DDOT,TLE_LINE0,TLE_LINE1,TLE_LINE2,SEMIMAJOR_AXIS,PERIOD,APOGEE,PERIGEE,DECAYED
55952.0,STARLINK-5893,PAYLOAD,2024-06-08 11:38:23,14.98325024,0.0002504,70.0028,76.2351,278.8796,81.2079,-3.1251e-05,-4.66e-06,0.0,0 STARLINK-5893,1 55952U 23037AQ  24160.48498997 -.00000466  00000-0 -31251-4 0  9996,2 55952  70.0028  76.2351 0002504 278.8796  81.2079 14.98325024 68725,6950.208,96.107,573.814,570.333,0.0
55952.0,STARLINK-5893,PAYLOAD,2024-06-08 21:15:11,14.98327211,0.0002298,70.0006,75.2243,266.1497,93.9399,-2.7834e-05,-4.25e-06,0.0,0 STARLINK-5893,1 55952U 23037AQ  24160.88554841 -.00000425  00000-0 -27834-4 0  9998,2 55952  70.0006  75.2243 0002298 266.1497  93.9399 14.98327211 69128,6950.202,96.107,573.664,570.469,0.0
55952.0,STARLINK-5893,PAYLOAD,2024-06-08 22:51:19,14.98327606,0.0002185,70.0014,75.0562,271.7381,88.3528,-1.9189e-05,-3.22e-06,0.0,0 STARLINK-5893,1 55952U 23037AQ  24160.95230869 -.00000322  00000-0 -19189-4 0  9997,2 55952  70.0014  75.0562 0002185 271.7381  88.3528 14.98327606 68790,6950.2,96.107,573.584,570.547,0.0
55952.0,STARLINK-5893,PAYLOAD,2024-06-09 03:39:43,14.9833121,0.0002687,70.0006,74.5555,267.9764,92.1087,-1.2767e-05,-2.45e-06,0.0,0 STARLINK-5893,1 55952U 23037AQ  24161.15258469 -.00000245  00000-0 -12767-4 0  9995,2 55952  70.0006  74.5555 0002687 267.9764  92.1087 14.98331210 69167,6950.189,96.107,573.922,570.187,0.0
55952.0,STARLINK-5893,PAYLOAD,2024-06-09 21:17:12,14.98329982,0.000279,70.0005,72.704,268.2053,91.8786,-9.5501e-05,-1.232e-05,0.0,0 STARLINK-5893,1 55952U 23037AQ  24161.88694912 -.00001232  00000-0 -95501-4 0  9996,2 55952  70.0005  72.7040 0002790 268.2053  91.8786 14.98329982 69272,6950.193,96.107,573.997,570.119,0.0
55952.0,STARLINK-5893,PAYLOAD,2024-06-09 22:53:20,14.98329378,0.0002787,70.0005,72.5357,268.1251,91.9589,-9.2795e-05,-1.2e-05,0.0,0 STARLINK-5893,1 55952U 23037AQ  24161.95370940 -.00001200  00000-0 -92795-4 0  9993,2 55952  70.0005  72.5357 0002787 268.1251  91.9589 14.98329378 68940,6950.195,96.107,573.997,570.123,0.0
55952.0,STARLINK-5893,PAYLOAD,2024-06-10 03:41:44,14.98333926,0.0002822,70.0005,72.0307,269.2593,90.8243,-6.0459e-05,-8.14e-06,0.0,0 STARLINK-5893,1 55952U 23037AQ  24162.15398557 -.00000814  00000-0 -60459-4 0  9992,2 55952  70.0005  72.0307 0002822 269.2593  90.8243 14.98333926 69312,6950.181,96.107,574.007,570.084,0.0
55952.0,STARLINK-5893,PAYLOAD,2024-06-10 11:42:25,14.9831678,0.0002786,70.0004,71.1876,275.4024,84.6817,0.00019329,2.213e-05,0.0,0 STARLINK-5893,1 55952U 23037AQ  24162.48779104  .00002213  00000-0  19329-3 0  9991,2 55952  70.0004  71.1876 0002786 275.4024  84.6817 14.98316780 69361,6950.234,96.108,574.035,570.162,0.0
55952.0,STARLINK-5893,PAYLOAD,2024-06-10 21:19:13,14.98327942,0.0002913,70.0004,70.1776,270.6047,89.4778,5.3432e-05,5.45e-06,0.0,0 STARLINK-5893,1 55952U 23037AQ  24162.88834623  .00000545  00000-0  53432-4 0  9993,2 55952  70.0004  70.1776 0002913 270.6047  89.4778 14.98327942 69421,6950.199,96.107,574.089,570.04,0.0
55952.0,STARLINK-5893,PAYLOAD,2024-06-10 22:55:21,14.98328317,0.0002886,70.0005,70.009,270.6222,89.4606,5.4884e-05,5.62e-06,0.0,0 STARLINK-5893,1 55952U 23037AQ  24162.95510607  .00000562  00000-0  54884-4 0  9995,2 55952  70.0005  70.0090 0002886 270.6222  89.4606 14.98328317 69094,6950.198,96.107,574.069,570.057,0.0
55952.0,STARLINK-5893,PAYLOAD,2024-06-11 03:43:44,14.98334875,0.0002973,70.0004,69.5052,269.7081,90.3737,6.6672e-05,7.03e-06,0.0,0 STARLINK-5893,1 55952U 23037AQ  24163.15538135  .00000703  00000-0  66672-4 0  9999,2 55952  70.0004  69.5052 0002973 269.7081  90.3737 14.98334875 69466,6950.178,96.107,574.109,569.977,0.0
55952.0,STARLINK-5893,PAYLOAD,2024-06-12 03:45:45,14.9833879,0.0002937,70.0004,66.9803,271.8355,88.2468,0.00010672,1.181e-05,0.0,0 STARLINK-5893,1 55952U 23037AQ  24164.15677592  .00001181  00000-0  10672-3 0  9990,2 55952  70.0004  66.9803 0002937 271.8355  88.2468 14.98338790 69613,6950.166,96.106,574.072,569.989,0.0
55952.0,STARLINK-5893,PAYLOAD,2024-06-12 21:23:15,14.98326775,0.0002625,70.0011,65.1296,273.2739,86.8119,-5.8276e-05,-7.88e-06,0.0,0 STARLINK-5893,1 55952U 23037AQ  24164.89114801 -.00000788  00000-0 -58276-4 0  9997,2 55952  70.0011  65.1296 0002625 273.2739  86.8119 14.98326775 69723,6950.203,96.107,573.892,570.243,0.0
55952.0,STARLINK-5893,PAYLOAD,2024-06-13 03:47:47,14.9832736,0.000281,70.0011,64.4564,275.5332,84.5506,-1.3406e-05,-2.53e-06,0.0,0 STARLINK-5893,1 55952U 23037AQ  24165.15818669 -.00000253  00000-0 -13406-4 0  9993,2 55952  70.0011  64.4564 0002810 275.5332  84.5506 14.98327360 69763,6950.201,96.107,574.019,570.113,0.0
55952.0,STARLINK-5893,PAYLOAD,2024-06-13 10:12:19,14.98337501,0.0002649,70.0012,63.7832,269.8654,90.2202,-0.000166,-2.073e-05,0.0,0 STARLINK-5893,1 55952U 23037AQ  24165.42522352 -.00002073  00000-0 -16600-3 0  9994,2 55952  70.0012  63.7832 0002649 269.8654  90.2202 14.98337501 69807,6950.17,96.107,573.876,570.194,0.0
55952.0,STARLINK-5893,PAYLOAD,2024-06-13 21:25:15,14.98335792,0.0002673,70.0007,62.6047,269.2201,90.8652,-1.9314e-05,-3.23e-06,0.0,0 STARLINK-5893,1 55952U 23037AQ  24165.89254012 -.00000323  00000-0 -19314-4 0  9992,2 55952  70.0007  62.6047 0002673 269.2201  90.8652 14.98335792 69878,6950.175,96.107,573.898,570.182,0.0
55952.0,STARLINK-5893,PAYLOAD,2024-06-14 10:14:20,14.98338186,0.0002787,70.0008,61.2574,270.5397,89.5443,-0.00021052,-2.604e-05,0.0,0 STARLINK-5893,1 55952U 23037AQ  24166.42662188 -.00002604  00000-0 -21052-3 0  9994,2 55952  70.0008  61.2574 0002787 270.5397  89.5443 14.98338186 69611,6950.168,96.106,573.97,570.096,0.0
55952.0,STARLINK-5893,PAYLOAD,2024-06-14 21:27:16,14.98326562,0.0002835,70.0004,60.0794,269.2427,90.8407,1.1836e-05,4.8e-07,0.0,0 STARLINK-5893,1 55952U 23037AQ  24166.89394428  .00000048  00000-0  11836-4 0  9992,2 55952  70.0004  60.0794 0002835 269.2427  90.8407 14.98326562 69688,6950.204,96.107,574.039,570.098,0.0
55952.0,STARLINK-5893,PAYLOAD,2024-06-15 10:16:21,14.98329274,0.0002763,70.0008,58.7316,273.194,86.8903,-6.5976e-06,-1.72e-06,0.0,0 STARLINK-5893,1 55952U 23037AQ  24167.42802402 -.00000172  00000-0 -65976-5 0  9993,2 55952  70.0008  58.7316 0002763 273.1940  86.8903 14.98329274 69768,6950.195,96.107,573.98,570.14,0.0
55952.0,STARLINK-5893,PAYLOAD,2024-06-15 21:29:17,14.98326945,0.0002798,70.0006,57.5535,272.0753,88.0086,7.666e-05,8.22e-06,0.0,0 STARLINK-5893,1 55952U 23037AQ  24167.89534322  .00000822  00000-0  76660-4 0  9998,2 55952  70.0006  57.5535 0002798 272.0753  88.0086 14.98326945 69830,6950.202,96.107,574.012,570.123,0.0
55952.0,STARLINK-5893,PAYLOAD,2024-06-16 10:18:22,14.98322594,0.0002698,70.0009,56.2067,266.4153,93.6698,0.00012445,1.392e-05,0.0,0 STARLINK-5893,1 55952U 23037AQ  24168.42942415  .00001392  00000-0  12445-3 0  9997,2 55952  70.0009  56.2067 0002698 266.4153  93.6698 14.98322594 69915,6950.216,96.107,573.956,570.206,0.0
55952.0,STARLINK-5893,PAYLOAD,2024-06-16 23:07:26,14.98329151,0.0002906,70.0004,54.8607,272.0836,87.9991,9.71e-06,2.3e-07,0.0,0 STARLINK-5893,1 55952U 23037AQ  24168.96350250  .00000023  00000-0  97100-5 0  9999,2 55952  70.0004  54.8607 0002906 272.0836  87.9991 14.98329151 69993,6950.196,96.107,574.08,570.041,0.0
55952.0,STARLINK-5893,PAYLOAD,2024-06-17 21:33:19,14.98331163,0.000293,70.0003,52.5042,272.3674,87.7149,1.4688e-05,8.2e-07,0.0,0 STARLINK-5893,1 55952U 23037AQ  24169.89814093  .00000082  00000-0  14688-4 0  9996,2 55952  70.0003  52.5042 0002930 272.3674  87.7149 14.98331163 70474,6950.189,96.107,574.091,570.018,0.0
55952.0,STARLINK-5893,PAYLOAD,2024-06-17 23:09:27,14.98333367,0.0002991,70.0002,52.336,272.5222,87.5595,2.6782e-06,-6.1e-07,0.0,0 STARLINK-5893,1 55952U 23037AQ  24169.96489963 -.00000061  00000-0  26782-5 0  9995,2 55952  70.0002  52.3360 0002991 272.5222  87.5595 14.98333367 70147,6950.182,96.107,574.126,569.969,0.0
55952.0,STARLINK-5893,PAYLOAD,2024-06-18 02:21:43,14.98335183,0.0002964,70.0003,51.9993,272.7388,87.3432,2.5572e-05,2.12e-06,0.0,0 STARLINK-5893,1 55952U 23037AQ  24170.09841765  .00000212  00000-0  25572-4 0  9995,2 55952  70.0003  51.9993 0002964 272.7388  87.3432 14.98335183 70506,6950.177,96.107,574.102,569.982,0.0
55952.0,STARLINK-5893,PAYLOAD,2024-06-18 19:59:12,14.98330435,0.0002968,70.0002,50.1477,272.7889,87.2931,2.8282e-05,2.44e-06,0.0,0 STARLINK-5893,1 55952U 23037AQ  24170.83277905  .00000244  00000-0  28282-4 0  9992,2 55952  70.0002  50.1477 0002968 272.7889  87.2931 14.98330435 70613,6950.192,96.107,574.119,569.994,0.0
55952.0,STARLINK-5893,PAYLOAD,2024-06-19 02:23:44,14.98334067,0.0002875,70.0004,49.475,271.6964,88.3866,6.7372e-05,7.11e-06,0.0,0 STARLINK-5893,1 55952U 23037AQ  24171.09981523  .00000711  00000-0  67372-4 0  9991,2 55952  70.0004  49.4750 0002875 271.6964  88.3866 14.98334067 70657,6950.18,96.107,574.043,570.047,0.0
55952.0,STARLINK-5893,PAYLOAD,2024-06-19 15:12:49,14.98329169,0.0002611,70.0011,48.1307,262.3332,97.7531,-3.7095e-05,-5.35e-06,0.0,0 STARLINK-5893,1 55952U 23037AQ  24171.63390067 -.00000535  00000-0 -37095-4 0  9993,2 55952  70.0011  48.1307 0002611 262.3332  97.7531 14.98329169 70394,6950.195,96.107,573.875,570.246,0.0
55952.0,STARLINK-5893,PAYLOAD,2024-06-19 21:37:21,14.98326454,0.000258,70.0011,47.4567,260.6434,99.4433,-3.5502e-05,-5.16e-06,0.0,0 STARLINK-5893,1 55952U 23037AQ  24171.90094209 -.00000516  00000-0 -35502-4 0  9992,2 55952  70.0011  47.4567 0002580 260.6434  99.4433 14.98326454 70779,6950.204,96.107,573.862,570.276,0.0
55952.0,STARLINK-5893,PAYLOAD,2024-06-20 00:49:37,14.98327483,0.0002659,70.0009,47.1203,263.5301,96.5555,-5.4824e-05,-7.47e-06,0.0,0 STARLINK-5893,1 55952U 23037AQ  24172.03446240 -.00000747  00000-0 -54824-4 0  9997,2 55952  70.0009  47.1203 0002659 263.5301  96.5555 14.98327483 70790,6950.201,96.107,573.914,570.218,0.0
